{
    "links": {
        "self": "http://www.neowsapp.com/rest/v1/neo/3761744?api_key=iIulBulltgU6a56xZRHN4H3l9WmuAYTsLGpBGhQ2"
    },
    "id": "3761744",
    "neo_reference_id": "3761744",
    "name": "(2016 UB41)",
    "designation": "2016 UB41",
    "nasa_jpl_url": "http://ssd.jpl.nasa.gov/sbdb.cgi?sstr=3761744",
    "absolute_magnitude_h": 27.1,
    "estimated_diameter": {
        "kilometers": {
            "estimated_diameter_min": 0.0101054342,
            "estimated_diameter_max": 0.0225964377
        },
        "meters": {
            "estimated_diameter_min": 10.1054341542,
            "estimated_diameter_max": 22.5964377109
        },
        "miles": {
            "estimated_diameter_min": 0.0062792237,
            "estimated_diameter_max": 0.0140407711
        },
        "feet": {
            "estimated_diameter_min": 33.1543125905,
            "estimated_diameter_max": 74.1352966996
        }
    },
    "is_potentially_hazardous_asteroid": false,
    "close_approach_data": [
        {
            "close_approach_date": "2016-10-29",
            "close_approach_date_full": "2016-Oct-29 19:51",
            "epoch_date_close_approach": 1477770660000,
            "relative_velocity": {
                "kilometers_per_second": "11.7426685123",
                "kilometers_per_hour": "42273.6066443106",
                "miles_per_hour": "26267.1751951829"
            },
            "miss_distance": {
                "astronomical": "0.0105950838",
                "lunar": "4.1214875982",
                "kilometers": "1585001.968951506",
                "miles": "984874.5542665428"
            },
            "orbiting_body": "Earth"
        },
        {
            "close_approach_date": "2130-02-20",
            "close_approach_date_full": "2130-Feb-20 23:50",
            "epoch_date_close_approach": 5053535400000,
            "relative_velocity": {
                "kilometers_per_second": "17.1246426251",
                "kilometers_per_hour": "61648.713450508",
                "miles_per_hour": "38306.1130881781"
            },
            "miss_distance": {
                "astronomical": "0.1885523463",
                "lunar": "73.3468627107",
                "kilometers": "28207029.389982381",
                "miles": "17527035.3235076178"
            },
            "orbiting_body": "Earth"
        },
        {
            "close_approach_date": "2132-10-01",
            "close_approach_date_full": "2132-Oct-01 05:59",
            "epoch_date_close_approach": 5135896740000,
            "relative_velocity": {
                "kilometers_per_second": "25.0605014075",
                "kilometers_per_hour": "90217.805066933",
                "miles_per_hour": "56057.8355983951"
            },
            "miss_distance": {
                "astronomical": "0.445199012",
                "lunar": "173.182415668",
                "kilometers": "66600823.92130444",
                "miles": "41383832.990863672"
            },
            "orbiting_body": "Earth"
        }
    ],
    "orbital_data": {
        "orbit_id": "3",
        "orbit_determination_date": "2019-07-18 07:27:43",
        "first_observation_date": "2016-10-26",
        "last_observation_date": "2016-10-29",
        "data_arc_in_days": 3,
        "observations_used": 31,
        "orbit_uncertainty": "7",
        "minimum_orbit_intersection": ".0100804",
        "jupiter_tisserand_invariant": "3.625",
        "epoch_osculation": "2459000.5",
        "eccentricity": ".5657213439658818",
        "semi_major_axis": "1.997342957617118",
        "inclination": "3.749548463776498",
        "ascending_node_longitude": "27.28258436865475",
        "orbital_period": "1031.044454767282",
        "perihelion_distance": ".8674034152731726",
        "perihelion_argument": "58.48197949591023",
        "aphelion_distance": "3.127282499961063",
        "perihelion_time": "2458758.436486829845",
        "mean_anomaly": "84.51901791269015",
        "mean_motion": ".3491605025714006",
        "equinox": "J2000",
        "orbit_class": {
            "orbit_class_type": "APO",
            "orbit_class_description": "Near-Earth asteroid orbits which cross the Earth’s orbit similar to that of 1862 Apollo",
            "orbit_class_range": "a (semi-major axis) > 1.0 AU; q (perihelion) < 1.017 AU"
        }
    },
    "is_sentry_object": false
}